[{"OBJECT_NAME":"KUIPER-00078","OBJECT_ID":"2025-151K","EPOCH":"2026-03-09T22:25:22.408032","MEAN_MOTION":14.79910308,"ECCENTRICITY":9.148e-5,"INCLINATION":51.901,"RA_OF_ASC_NODE":294.5072,"ARG_OF_PERICENTER":57.8645,"MEAN_ANOMALY":302.2406,"EPHEMERIS_TYPE":0,"CLASSIFICATION_TYPE":"U","NORAD_CAT_ID":64825,"ELEMENT_SET_NO":999,"REV_AT_EPOCH":3541,"BSTAR":-0.00014297297,"MEAN_MOTION_DOT":-1.31e-5,"MEAN_MOTION_DDOT":0},{"OBJECT_NAME":"FENGYUN 1C DEB","OBJECT_ID":"1999-025QQ","EPOCH":"2026-03-09T13:23:45.648672","MEAN_MOTION":14.35922727,"ECCENTRICITY":0.02280151,"INCLINATION":98.3696,"RA_OF_ASC_NODE":103.4107,"ARG_OF_PERICENTER":221.8264,"MEAN_ANOMALY":301.9681,"EPHEMERIS_TYPE":0,"CLASSIFICATION_TYPE":"U","NORAD_CAT_ID":30087,"ELEMENT_SET_NO":999,"REV_AT_EPOCH":99941,"BSTAR":0.00028739308,"MEAN_MOTION_DOT":1.069e-5,"MEAN_MOTION_DDOT":0}]
